UNKNOWN                 
1 81406U          25327.03966513  .00001826  00000+0  75033-3 0  9998
2 81406  65.8117 199.1210 0865826 328.4185  26.7526 13.12066449531090
UNKNOWN                 
1 81427U          25332.42170776  .00000808  00000+0  49335-3 0  9993
2 81427  98.7516 215.0140 0085288  78.2453 282.8269 14.06907369549755
UNKNOWN                 
1 81438U          25323.92649226  .00003284  00000+0  48489-2 0  9990
2 81438 100.3079 194.6442 0042047 128.3151 232.1776 13.54502073588856
UNKNOWN                 
1 81439U          25331.83448317  .00000219  00000+0  74610-3 0  9999
2 81439  67.1571 170.6176 0603912 212.2613 144.0093 12.62599891260012
UNKNOWN                 
1 81449U          25332.18313350  .00066628  00000+0  56453-2 0  9997
2 81449  66.7981  34.1288 0018781 147.2693 212.9608 14.97437319631374
UNKNOWN                 
1 81478U          25332.74524912  .00004610  00000+0  16687-2 0  9997
2 81478  98.9457 244.2886 0148348  38.8584  19.4974 14.27986186620947
UNKNOWN                 
1 81488U          25331.13401216  .00000244  00000+0  40916-3 0  9993
2 81488 100.0020 203.5592 0044995  38.6832 114.3274 13.56512156594512
UNKNOWN                 
1 81497U          25331.94750690  .00004524  00000+0  41007-2 0  9991
2 81497 100.2992 225.1983 0029417  50.7120 325.2873 13.83996157214258
UNKNOWN                 
1 81499U          25332.18674284  .00003353  00000+0  92882-3 0  9991
2 81499  74.0492 248.2426 0002106 291.6158  68.4776 14.47004665480319
UNKNOWN                 
1 81535U          25330.01168910  .00002289  00000+0  95259-3 0  9994
2 81535  98.2033  53.6003 0235631 196.8864 162.4370 14.13349595385034
UNKNOWN                 
1 81536U          25331.84545466  .00000711  00000+0  45993-2 0  9999
2 81536 101.9567 192.7382 0036248 313.1224 112.1975 12.55841986549941
UNKNOWN                 
1 81537U          25332.74635001  .00000184  00000+0  13428-3 0  9998
2 81537  71.0368 138.1976 0077088 175.1369 185.0517 14.07073268618491
