CCSDS_OMM_VERS = 2.0
CREATION_DATE  = 
ORIGINATOR     = 

OBJECT_NAME    = UNKNOWN
OBJECT_ID      = 
CENTER_NAME    = EARTH
REF_FRAME      = TEME
TIME_SYSTEM    = UTC
MEAN_ELEMENT_THEORY = SGP/SGP4

EPOCH          = 2025-11-23T00:57:07.067232
MEAN_MOTION    = 13.12066449
ECCENTRICITY   = .0865826
INCLINATION    = 65.8117
RA_OF_ASC_NODE = 199.1210
ARG_OF_PERICENTER = 328.4185
MEAN_ANOMALY   = 26.7526

EPHEMERIS_TYPE = 0
CLASSIFICATION_TYPE = U
NORAD_CAT_ID   = 81406
ELEMENT_SET_NO = 999
REV_AT_EPOCH   = 53109
BSTAR          = .75033E-3
MEAN_MOTION_DOT = .1826E-4
MEAN_MOTION_DDOT = 0

CCSDS_OMM_VERS = 2.0
CREATION_DATE  = 
ORIGINATOR     = 

OBJECT_NAME    = UNKNOWN
OBJECT_ID      = 
CENTER_NAME    = EARTH
REF_FRAME      = TEME
TIME_SYSTEM    = UTC
MEAN_ELEMENT_THEORY = SGP/SGP4

EPOCH          = 2025-11-28T10:07:15.550464
MEAN_MOTION    = 14.06907369
ECCENTRICITY   = .0085288
INCLINATION    = 98.7516
RA_OF_ASC_NODE = 215.0140
ARG_OF_PERICENTER = 78.2453
MEAN_ANOMALY   = 282.8269

EPHEMERIS_TYPE = 0
CLASSIFICATION_TYPE = U
NORAD_CAT_ID   = 81427
ELEMENT_SET_NO = 999
REV_AT_EPOCH   = 54975
BSTAR          = .49335E-3
MEAN_MOTION_DOT = .808E-5
MEAN_MOTION_DDOT = 0

CCSDS_OMM_VERS = 2.0
CREATION_DATE  = 
ORIGINATOR     = 

OBJECT_NAME    = UNKNOWN
OBJECT_ID      = 
CENTER_NAME    = EARTH
REF_FRAME      = TEME
TIME_SYSTEM    = UTC
MEAN_ELEMENT_THEORY = SGP/SGP4

EPOCH          = 2025-11-19T22:14:08.931264
MEAN_MOTION    = 13.54502073
ECCENTRICITY   = .0042047
INCLINATION    = 100.3079
RA_OF_ASC_NODE = 194.6442
ARG_OF_PERICENTER = 128.3151
MEAN_ANOMALY   = 232.1776

EPHEMERIS_TYPE = 0
CLASSIFICATION_TYPE = U
NORAD_CAT_ID   = 81438
ELEMENT_SET_NO = 999
REV_AT_EPOCH   = 58885
BSTAR          = .48489E-2
MEAN_MOTION_DOT = .3284E-4
MEAN_MOTION_DDOT = 0

CCSDS_OMM_VERS = 2.0
CREATION_DATE  = 
ORIGINATOR     = 

OBJECT_NAME    = UNKNOWN
OBJECT_ID      = 
CENTER_NAME    = EARTH
REF_FRAME      = TEME
TIME_SYSTEM    = UTC
MEAN_ELEMENT_THEORY = SGP/SGP4

EPOCH          = 2025-11-27T20:01:39.345888
MEAN_MOTION    = 12.62599891
ECCENTRICITY   = .0603912
INCLINATION    = 67.1571
RA_OF_ASC_NODE = 170.6176
ARG_OF_PERICENTER = 212.2613
MEAN_ANOMALY   = 144.0093

EPHEMERIS_TYPE = 0
CLASSIFICATION_TYPE = U
NORAD_CAT_ID   = 81439
ELEMENT_SET_NO = 999
REV_AT_EPOCH   = 26001
BSTAR          = .7461E-3
MEAN_MOTION_DOT = .219E-5
MEAN_MOTION_DDOT = 0

CCSDS_OMM_VERS = 2.0
CREATION_DATE  = 
ORIGINATOR     = 

OBJECT_NAME    = UNKNOWN
OBJECT_ID      = 
CENTER_NAME    = EARTH
REF_FRAME      = TEME
TIME_SYSTEM    = UTC
MEAN_ELEMENT_THEORY = SGP/SGP4

EPOCH          = 2025-11-28T04:23:42.734400
MEAN_MOTION    = 14.97437319
ECCENTRICITY   = .0018781
INCLINATION    = 66.7981
RA_OF_ASC_NODE = 34.1288
ARG_OF_PERICENTER = 147.2693
MEAN_ANOMALY   = 212.9608

EPHEMERIS_TYPE = 0
CLASSIFICATION_TYPE = U
NORAD_CAT_ID   = 81449
ELEMENT_SET_NO = 999
REV_AT_EPOCH   = 63137
BSTAR          = .56453E-2
MEAN_MOTION_DOT = .66628E-3
MEAN_MOTION_DDOT = 0

CCSDS_OMM_VERS = 2.0
CREATION_DATE  = 
ORIGINATOR     = 

OBJECT_NAME    = UNKNOWN
OBJECT_ID      = 
CENTER_NAME    = EARTH
REF_FRAME      = TEME
TIME_SYSTEM    = UTC
MEAN_ELEMENT_THEORY = SGP/SGP4

EPOCH          = 2025-11-28T17:53:09.523968
MEAN_MOTION    = 14.27986186
ECCENTRICITY   = .0148348
INCLINATION    = 98.9457
RA_OF_ASC_NODE = 244.2886
ARG_OF_PERICENTER = 38.8584
MEAN_ANOMALY   = 19.4974

EPHEMERIS_TYPE = 0
CLASSIFICATION_TYPE = U
NORAD_CAT_ID   = 81478
ELEMENT_SET_NO = 999
REV_AT_EPOCH   = 62094
BSTAR          = .16687E-2
MEAN_MOTION_DOT = .461E-4
MEAN_MOTION_DDOT = 0

CCSDS_OMM_VERS = 2.0
CREATION_DATE  = 
ORIGINATOR     = 

OBJECT_NAME    = UNKNOWN
OBJECT_ID      = 
CENTER_NAME    = EARTH
REF_FRAME      = TEME
TIME_SYSTEM    = UTC
MEAN_ELEMENT_THEORY = SGP/SGP4

EPOCH          = 2025-11-27T03:12:58.650624
MEAN_MOTION    = 13.56512156
ECCENTRICITY   = .0044995
INCLINATION    = 100.0020
RA_OF_ASC_NODE = 203.5592
ARG_OF_PERICENTER = 38.6832
MEAN_ANOMALY   = 114.3274

EPHEMERIS_TYPE = 0
CLASSIFICATION_TYPE = U
NORAD_CAT_ID   = 81488
ELEMENT_SET_NO = 999
REV_AT_EPOCH   = 59451
BSTAR          = .40916E-3
MEAN_MOTION_DOT = .244E-5
MEAN_MOTION_DDOT = 0

CCSDS_OMM_VERS = 2.0
CREATION_DATE  = 
ORIGINATOR     = 

OBJECT_NAME    = UNKNOWN
OBJECT_ID      = 
CENTER_NAME    = EARTH
REF_FRAME      = TEME
TIME_SYSTEM    = UTC
MEAN_ELEMENT_THEORY = SGP/SGP4

EPOCH          = 2025-11-27T22:44:24.596160
MEAN_MOTION    = 13.83996157
ECCENTRICITY   = .0029417
INCLINATION    = 100.2992
RA_OF_ASC_NODE = 225.1983
ARG_OF_PERICENTER = 50.7120
MEAN_ANOMALY   = 325.2873

EPHEMERIS_TYPE = 0
CLASSIFICATION_TYPE = U
NORAD_CAT_ID   = 81497
ELEMENT_SET_NO = 999
REV_AT_EPOCH   = 21425
BSTAR          = .41007E-2
MEAN_MOTION_DOT = .4524E-4
MEAN_MOTION_DDOT = 0

CCSDS_OMM_VERS = 2.0
CREATION_DATE  = 
ORIGINATOR     = 

OBJECT_NAME    = UNKNOWN
OBJECT_ID      = 
CENTER_NAME    = EARTH
REF_FRAME      = TEME
TIME_SYSTEM    = UTC
MEAN_ELEMENT_THEORY = SGP/SGP4

EPOCH          = 2025-11-28T04:28:54.581376
MEAN_MOTION    = 14.47004665
ECCENTRICITY   = .0002106
INCLINATION    = 74.0492
RA_OF_ASC_NODE = 248.2426
ARG_OF_PERICENTER = 291.6158
MEAN_ANOMALY   = 68.4776

EPHEMERIS_TYPE = 0
CLASSIFICATION_TYPE = U
NORAD_CAT_ID   = 81499
ELEMENT_SET_NO = 999
REV_AT_EPOCH   = 48031
BSTAR          = .92882E-3
MEAN_MOTION_DOT = .3353E-4
MEAN_MOTION_DDOT = 0

CCSDS_OMM_VERS = 2.0
CREATION_DATE  = 
ORIGINATOR     = 

OBJECT_NAME    = UNKNOWN
OBJECT_ID      = 
CENTER_NAME    = EARTH
REF_FRAME      = TEME
TIME_SYSTEM    = UTC
MEAN_ELEMENT_THEORY = SGP/SGP4

EPOCH          = 2025-11-26T00:16:49.938240
MEAN_MOTION    = 14.13349595
ECCENTRICITY   = .0235631
INCLINATION    = 98.2033
RA_OF_ASC_NODE = 53.6003
ARG_OF_PERICENTER = 196.8864
MEAN_ANOMALY   = 162.4370

EPHEMERIS_TYPE = 0
CLASSIFICATION_TYPE = U
NORAD_CAT_ID   = 81535
ELEMENT_SET_NO = 999
REV_AT_EPOCH   = 38503
BSTAR          = .95259E-3
MEAN_MOTION_DOT = .2289E-4
MEAN_MOTION_DDOT = 0

CCSDS_OMM_VERS = 2.0
CREATION_DATE  = 
ORIGINATOR     = 

OBJECT_NAME    = UNKNOWN
OBJECT_ID      = 
CENTER_NAME    = EARTH
REF_FRAME      = TEME
TIME_SYSTEM    = UTC
MEAN_ELEMENT_THEORY = SGP/SGP4

EPOCH          = 2025-11-27T20:17:27.282624
MEAN_MOTION    = 12.55841986
ECCENTRICITY   = .0036248
INCLINATION    = 101.9567
RA_OF_ASC_NODE = 192.7382
ARG_OF_PERICENTER = 313.1224
MEAN_ANOMALY   = 112.1975

EPHEMERIS_TYPE = 0
CLASSIFICATION_TYPE = U
NORAD_CAT_ID   = 81536
ELEMENT_SET_NO = 999
REV_AT_EPOCH   = 54994
BSTAR          = .45993E-2
MEAN_MOTION_DOT = .711E-5
MEAN_MOTION_DDOT = 0

CCSDS_OMM_VERS = 2.0
CREATION_DATE  = 
ORIGINATOR     = 

OBJECT_NAME    = UNKNOWN
OBJECT_ID      = 
CENTER_NAME    = EARTH
REF_FRAME      = TEME
TIME_SYSTEM    = UTC
MEAN_ELEMENT_THEORY = SGP/SGP4

EPOCH          = 2025-11-28T17:54:44.640864
MEAN_MOTION    = 14.07073268
ECCENTRICITY   = .0077088
INCLINATION    = 71.0368
RA_OF_ASC_NODE = 138.1976
ARG_OF_PERICENTER = 175.1369
MEAN_ANOMALY   = 185.0517

EPHEMERIS_TYPE = 0
CLASSIFICATION_TYPE = U
NORAD_CAT_ID   = 81537
ELEMENT_SET_NO = 999
REV_AT_EPOCH   = 61849
BSTAR          = .13428E-3
MEAN_MOTION_DOT = .184E-5
MEAN_MOTION_DDOT = 0

